{"fetched_at":"2026-07-14T17:40:38.566Z","source":"https://celestrak.org/NORAD/elements/gp.php?NAME=CENTAURI&FORMAT=JSON","constellation":"myriota","records":[{"OBJECT_NAME":"CENTAURI-1","OBJECT_ID":"2018-099BD","EPOCH":"2026-07-14T03:03:20.009952","CLASSIFICATION_TYPE":"U","MEAN_MOTION":15.16618547,"ECCENTRICITY":0.0012919,"INCLINATION":97.4209,"RA_OF_ASC_NODE":246.2702,"ARG_OF_PERICENTER":229.0023,"MEAN_ANOMALY":131.0094,"EPHEMERIS_TYPE":0,"NORAD_CAT_ID":43809,"ELEMENT_SET_NO":999,"REV_AT_EPOCH":41658,"BSTAR":0.00014712,"MEAN_MOTION_DOT":0.00002814,"MEAN_MOTION_DDOT":0},{"OBJECT_NAME":"CENTAURI-6","OBJECT_ID":"2024-066K","EPOCH":"2026-07-14T00:00:54.659232","CLASSIFICATION_TYPE":"U","MEAN_MOTION":15.0602835,"ECCENTRICITY":0.0001594,"INCLINATION":45.6062,"RA_OF_ASC_NODE":114.4393,"ARG_OF_PERICENTER":248.2228,"MEAN_ANOMALY":111.8487,"EPHEMERIS_TYPE":0,"NORAD_CAT_ID":59451,"ELEMENT_SET_NO":999,"REV_AT_EPOCH":12416,"BSTAR":0.00019007,"MEAN_MOTION_DOT":0.0000257,"MEAN_MOTION_DDOT":0},{"OBJECT_NAME":"CENTAURI-7","OBJECT_ID":"2025-009DD","EPOCH":"2026-07-14T04:23:24.989568","CLASSIFICATION_TYPE":"U","MEAN_MOTION":14.97972463,"ECCENTRICITY":0.0002816,"INCLINATION":97.7107,"RA_OF_ASC_NODE":275.1161,"ARG_OF_PERICENTER":104.5965,"MEAN_ANOMALY":255.5569,"EPHEMERIS_TYPE":0,"NORAD_CAT_ID":62708,"ELEMENT_SET_NO":999,"REV_AT_EPOCH":8150,"BSTAR":0.00018474,"MEAN_MOTION_DOT":0.00002121,"MEAN_MOTION_DDOT":0},{"OBJECT_NAME":"CENTAURI-8","OBJECT_ID":"2025-009DK","EPOCH":"2026-07-14T03:28:28.259328","CLASSIFICATION_TYPE":"U","MEAN_MOTION":14.9792306,"ECCENTRICITY":0.0002424,"INCLINATION":97.7041,"RA_OF_ASC_NODE":274.9002,"ARG_OF_PERICENTER":79.0215,"MEAN_ANOMALY":281.128,"EPHEMERIS_TYPE":0,"NORAD_CAT_ID":62714,"ELEMENT_SET_NO":999,"REV_AT_EPOCH":8151,"BSTAR":0.00013029,"MEAN_MOTION_DOT":0.00001477,"MEAN_MOTION_DDOT":0}]}
