CENTAURI-1              
1 43809U 18099BD  26195.12731493  .00002814  00000+0  14712-3 0  9996
2 43809  97.4209 246.2702 0012919 229.0023 131.0094 15.16618547416586
CENTAURI-6              
1 59451U 24066K   26195.00063263  .00002570  00000+0  19007-3 0  9998
2 59451  45.6062 114.4393 0001594 248.2228 111.8487 15.06028350124165
CENTAURI-7              
1 62708U 25009DD  26195.18292812  .00002121  00000+0  18474-3 0  9997
2 62708  97.7107 275.1161 0002816 104.5965 255.5569 14.97972463 81509
CENTAURI-8              
1 62714U 25009DK  26195.14477152  .00001477  00000+0  13029-3 0  9996
2 62714  97.7041 274.9002 0002424  79.0215 281.1280 14.97923060 81518
